GLOBALSTAR M024         
1 25883U 99043A   24336.85516064 -.00000031  00000+0  11822-2 0  9994
2 25883  51.9997 105.8688 0002517 123.4089  42.2501 11.10160890 92941
GLOBALSTAR M027         
1 25884U 99043B   24336.81681053  .00000002  00000+0  24937-2 0  9990
2 25884  52.0172 178.3489 0022054  35.1285 325.0957 11.04371206119437
GLOBALSTAR M054         
1 25885U 99043C   24336.95754385 -.00000039  00000+0  82004-3 0  9996
2 25885  52.0163 338.4333 0006047 200.3941 174.1871 11.39206467 96575
GLOBALSTAR M053         
1 25886U 99043D   24336.60556389 -.00000063  00000+0  15515-3 0  9993
2 25886  51.9991 275.4088 0003806  94.8391  75.6447 11.27660495 97291
GLOBALSTAR M058         
1 25907U 99049A   24336.86140223 -.00000092  00000+0 -98719-4 0  9998
2 25907  51.9949 276.0841 0001215 270.6505  89.4191 11.93193044517981
GLOBALSTAR M050         
1 25908U 99049B   24336.85814251 -.00000026  00000+0  69693-3 0  9991
2 25908  52.0000 298.5108 0009509   0.7942  34.5178 12.07444140124351
GLOBALSTAR M033         
1 25909U 99049C   24336.86607732 -.00000093  00000+0 -11908-4 0  9999
2 25909  51.9888 183.9516 0011921 213.1733 146.8367 12.20292112511658
GLOBALSTAR M055         
1 25910U 99049D   24336.85850186 -.00000027  00000+0  57223-3 0  9998
2 25910  51.9997 204.3259 0008208  81.1392 279.0389 12.29416039144011
